OBJECT_NAME,OBJECT_ID,EPOCH,MEAN_MOTION,ECCENTRICITY,INCLINATION,RA_OF_ASC_NODE,ARG_OF_PERICENTER,MEAN_ANOMALY,EPHEMERIS_TYPE,CLASSIFICATION_TYPE,NORAD_CAT_ID,ELEMENT_SET_NO,REV_AT_EPOCH,BSTAR,MEAN_MOTION_DOT,MEAN_MOTION_DDOT
MONITOR-4 (RS57S),2023-091S,2026-07-13T02:34:08.740704,15.28435184,.0011218,97.5070,257.7225,17.3726,342.7895,0,U,57182,999,16825,.24763E-3,.6789E-4,0
MONITOR-2 (RS39S),2023-091U,2026-07-13T04:49:19.801632,15.19143640,.001159,97.5062,252.3172,30.5629,329.6278,0,U,57184,999,16790,.13311E-3,.2731E-4,0
SVYATOBOR 1 (RS60S),2023-091X,2026-07-13T03:26:02.379840,15.27043307,.0008955,97.5083,258.1088,11.9442,348.2008,0,U,57187,999,16827,.216E-3,.5661E-4,0
HORS 1,2023-091Y,2026-07-13T03:02:28.893984,15.27161078,.0008419,97.5060,257.8515,12.3401,347.8042,0,U,57188,999,16827,.22789E-3,.5998E-4,0
VIZARD-METEO (RS38S),2023-091Z,2026-07-13T03:12:20.975904,15.36834982,.0005843,97.5087,264.1515,348.1559,11.9547,0,U,57189,999,16867,.33479E-3,.1198E-3,0
SITRO-AIS 6 (CHIRKIN),2023-091AC,2026-07-13T03:26:44.035872,15.26415346,.0011412,97.5061,257.2773,23.6408,336.5353,0,U,57192,999,16824,.24399E-3,.6289E-4,0
SITRO-AIS 8 (ANOKHIN),2023-091AD,2026-07-13T03:21:45.746784,15.32823411,.000974,97.5050,259.9908,15.6426,344.5114,0,U,57193,999,16842,.29927E-3,.9422E-4,0
SITRO-AIS 7 (FARTUSHNIY),2023-091AE,2026-07-13T03:39:03.293280,15.26090209,.0011363,97.5057,257.0972,24.8337,335.3445,0,U,57194,999,16823,.23225E-3,.5923E-4,0
AVION KALUGA 650,2023-091AF,2026-07-13T03:46:24.698784,15.20620351,.0010642,97.5079,253.6306,29.2254,330.9574,0,U,57195,999,16797,.15231E-3,.3274E-4,0
HORS 2,2023-091AG,2026-07-13T03:45:09.471168,15.32530889,.0007056,97.5083,261.5492,2.8299,357.2982,0,U,57196,999,16850,.26962E-3,.8396E-4,0
A-SEANSAT-PG1,2023-091AH,2026-07-13T04:13:30.665568,15.37839373,.000584,97.5075,264.3260,357.3743,2.7470,0,U,57197,999,16870,.29618E-3,.10938E-3,0
SITRO-AIS 10 (BURDAEV),2023-091AK,2026-07-13T03:00:19.247328,15.39579223,.0005042,97.5076,265.3032,350.0151,10.0994,0,U,57199,999,16875,.36863E-3,.14435E-3,0
SITRO-AIS 9 (SHCHUKIN),2023-091AM,2026-07-13T03:50:30.015168,15.39063918,.0005308,97.5075,265.0482,350.2686,9.8455,0,U,57201,999,16874,.32614E-3,.12545E-3,0
UTMN 2 (RS27S),2023-091AP,2026-07-13T02:46:39.770112,15.32672034,.0006937,97.5081,261.7050,357.9627,2.1585,0,U,57203,999,16851,.27312E-3,.8543E-4,0
SITRO-AIS 12 (SMIRENNIY),2023-091AQ,2026-07-13T03:29:52.374912,15.39361326,.0004844,97.5088,265.5170,343.2629,16.8456,0,U,57204,999,16876,.36663E-3,.14254E-3,0
SITRO-AIS 11 (SHEFFER),2023-091AU,2026-07-13T03:38:40.067232,15.39803069,.0004749,97.5086,265.7864,342.6829,17.4254,0,U,57208,999,16878,.35847E-3,.14138E-3,0
H2SAT (HEINRICH HERTZ),2023-093A,2026-07-13T04:15:38.675808,1.00269781,.0000353,0.0188,97.6725,48.5980,209.3923,0,U,57213,999,1117,0,-.1E-7,0
KUZGTU 1 (RS47S),2023-091AV,2026-07-13T03:02:22.521120,15.30442421,.0010278,97.5056,258.8787,13.6984,346.4533,0,U,57217,999,16834,.2859E-3,.8352E-4,0
QIANKUN-1,2023-103B,2026-07-09T12:23:52.426464,16.07683835,.0036275,96.1478,233.7894,139.5319,220.8675,0,U,57422,999,17088,.17456964E-4,.14836E-3,.1743906E-5
FENGYUN 3F,2023-111A,2026-07-13T04:29:39.764256,14.19943225,.000131,98.6826,263.7102,77.2007,282.9316,0,U,57490,999,15255,.22871E-4,.5E-7,0
METEOR 2-1 DEB,1975-064F,2026-07-02T16:40:06.054528,14.29524505,.00095544,81.2776,343.7254,36.0022,324.1801,0,U,57492,999,40520,.88245023E-3,.2268E-4,0
HJ-2F,2023-116A,2026-07-13T05:06:57.131136,15.22678480,.0006783,97.3843,198.9848,320.9939,39.0808,0,U,57519,999,16271,.19305E-3,.4429E-4,0
XRISM,2023-137A,2026-07-12T23:49:39.035424,15.12660454,.0007831,31.0006,192.4157,224.7001,135.3007,0,U,57800,999,15677,.11607E-3,.2179E-4,0
METEOR-M2 4,2024-039A,2026-07-13T05:02:20.358240,14.22432015,.0008245,98.7024,153.1828,93.7011,266.5110,0,U,59051,999,12296,.85892E-5,-.25E-6,0
GRBBETA,2024-128C,2026-07-12T21:40:37.407936,15.06800020,.0037346,61.9895,126.0301,140.1502,220.2344,0,U,60237,999,11014,.15113E-3,.2075E-4,0
TRANSPORTER-11 OBJECT A,2024-149A,2026-07-12T19:18:02.100672,15.33316423,.000482,97.3732,273.6595,122.5793,237.5916,0,U,60468,999,10598,.17957E-3,.5703E-4,0
WARATAH SEED-1,2024-149B,2026-07-12T18:35:04.368768,15.36581266,.000313,97.3690,274.3823,124.9732,235.1806,0,U,60469,999,10604,.26807E-3,.9494E-4,0
PHISAT 2,2024-149C,2026-07-13T02:55:01.013664,15.31404314,.0003128,97.3759,273.1973,126.0436,234.1095,0,U,60470,999,10596,.1616E-3,.4824E-4,0
LEMUR-2-TOMATOKECHUP,2024-149D,2026-07-12T18:28:56.034336,15.36552510,.0003218,97.3802,275.8895,127.0790,233.0748,0,U,60471,999,10609,.21932E-3,.7744E-4,0
CONNECTA IOT-1,2024-149E,2026-07-13T04:02:49.032384,15.23732729,.0002637,97.3756,270.0230,146.7323,213.4080,0,U,60472,999,10575,.10117E-3,.2361E-4,0
LOPEN,2024-149F,2026-07-12T19:05:30.144192,15.40419071,.0002653,97.3781,277.3749,138.2695,221.8753,0,U,60473,999,10620,.28535E-3,.11463E-3,0
ROCK,2024-149G,2026-07-13T04:07:37.805376,15.40414163,.0002991,97.3777,277.7689,135.1319,225.0169,0,U,60474,999,10626,.24398E-3,.9785E-4,0
CONNECTA IOT-3,2024-149H,2026-07-13T01:24:09.551232,15.23745957,.0003748,97.3730,269.6596,148.1553,211.9911,0,U,60475,999,10574,.10663E-3,.2493E-4,0
QUBE,2024-149J,2026-07-12T18:35:38.768064,15.48428283,.0003287,97.3776,280.7225,133.9557,226.1965,0,U,60476,999,10642,.36919E-3,.19514E-3,0
WREN-1,2024-149L,2026-07-12T18:23:14.027712,15.42563682,.0005178,97.3770,278.1635,158.3333,201.8134,0,U,60478,999,10626,.37437E-3,.16193E-3,0
TOMORROW-S1,2024-149M,2026-07-12T17:24:36.022752,15.33070752,.0003869,97.3750,274.1217,136.2792,223.8757,0,U,60479,999,10600,.14456E-3,.4539E-4,0
FLOCK 4BE-18,2024-149N,2026-07-13T00:48:07.302240,15.42676663,.0004973,97.3729,278.0472,150.6022,209.5506,0,U,60480,999,10629,.22262E-3,.9622E-4,0
FLOCK 4BE-7,2024-149P,2026-07-12T11:31:59.284128,15.41376569,.00040992,97.3761,276.7820,155.1561,204.9884,0,U,60481,999,10614,.35323825E-3,.14676E-3,0
FLOCK 4BE-26,2024-149S,2026-07-12T18:10:26.971104,15.76796793,.0004227,97.3625,281.2108,202.5799,157.5281,0,U,60484,999,10648,.1197E-2,.195869E-2,0
TOMORROW-S2,2024-149T,2026-07-13T00:23:32.689248,15.33121933,.0003639,97.3819,274.9257,154.2780,205.8644,0,U,60485,999,10604,.16404E-3,.517E-4,0
FLOCK 4BE-36,2024-149U,2026-07-12T19:07:03.038016,15.43488814,.0004472,97.3751,278.5445,158.4731,201.6706,0,U,60486,999,10630,.27856E-3,.124E-3,0
FLOCK 4BE-25,2024-149V,2026-07-12T18:25:32.604672,15.39503314,.0003568,97.3800,277.1018,147.6318,212.5147,0,U,60487,999,10617,.26781E-3,.10433E-3,0
FLOCK 4BE-31,2024-149W,2026-07-12T19:16:07.986144,15.45092567,.0003758,97.3799,279.4857,157.7296,202.4117,0,U,60488,999,10633,.3461E-3,.16295E-3,0
FLOCK 4BE-20,2024-149X,2026-07-12T19:24:34.964064,15.38770429,.0004694,97.3699,275.9574,158.3242,201.8202,0,U,60489,999,10615,.26884E-3,.10226E-3,0
FLOCK 4BE-23,2024-149Y,2026-07-12T17:46:52.256640,15.38322323,.0004537,97.3796,276.2776,162.7384,197.4017,0,U,60490,999,10612,.24192E-3,.9058E-4,0
FLOCK 4BE-15,2024-149Z,2026-07-12T18:35:49.060032,15.64610188,.0004663,97.3670,280.1976,194.8432,165.2691,0,U,60491,999,10642,.10396E-2,.101357E-2,0
FLOCK 4BE-17,2024-149AA,2026-07-12T18:06:11.331648,15.40520565,.0004105,97.3777,277.3369,152.2435,207.9031,0,U,60492,999,10619,.2738E-3,.11033E-3,0
NUSAT-50 (NANCY ROMAN),2024-149AB,2026-07-12T19:18:36.372096,15.30294248,.0004788,97.3788,274.8880,107.2832,252.8933,0,U,60493,999,10604,.21004E-3,.608E-4,0
FLOCK 4BE-22,2024-149AC,2026-07-12T18:39:43.706016,15.41936586,.0004562,97.3736,277.5931,161.1009,199.0408,0,U,60494,999,10624,.29292E-3,.12381E-3,0
FLOCK 4BE-34,2024-149AD,2026-07-12T19:04:56.479296,15.41901883,.0004595,97.3783,278.4489,167.4136,192.7227,0,U,60495,999,10627,.27495E-3,.11602E-3,0
TYCHE,2024-149AE,2026-07-13T04:04:22.891296,15.25820299,.0002918,97.3753,271.6363,170.7035,189.4258,0,U,60496,999,10586,.10099E-3,.251E-4,0
FLOCK 4BE-32,2024-149AF,2026-07-12T19:27:43.326432,15.43033515,.000465,97.3726,278.0282,165.6683,194.4697,0,U,60497,999,10628,.32184E-3,.14125E-3,0
NUSAT-48 (HENRIETTA LEAVITT),2024-149AG,2026-07-13T02:53:30.304032,15.30254179,.0004632,97.3929,275.4901,163.7479,196.3911,0,U,60498,999,10610,.20515E-3,.5929E-4,0
FLOCK 4BE-30,2024-149AH,2026-07-12T18:48:27.836928,15.64297325,.0007341,97.3773,280.2996,211.4053,148.6769,0,U,60499,999,10576,.18132E-2,.176419E-2,0
NUSAT-49 (KLARA DAN VON NEUMANN),2024-149AJ,2026-07-13T00:45:25.498368,15.30361086,.0002328,97.3781,275.1455,168.9245,191.2048,0,U,60500,999,10608,.20591E-3,.597E-4,0
FLOCK 4BE-11,2024-149AK,2026-07-12T19:00:42.567840,15.43823884,.0004819,97.3700,278.2646,164.5778,195.5618,0,U,60501,999,10630,.31155E-3,.1404E-3,0
YAM-7,2024-149AN,2026-07-13T02:50:50.451072,15.32165018,.0003456,97.3784,274.2671,174.3299,185.7982,0,U,60504,999,10602,.15461E-3,.4723E-4,0
FLOCK 4BE-24,2024-149AP,2026-07-13T00:51:00.465120,15.44044848,.000485,97.3717,278.7781,176.3510,183.7775,0,U,60505,999,10635,.34611E-3,.15728E-3,0
LUR-1,2024-149AQ,2026-07-12T16:19:50.975040,15.30425896,.0003749,97.3736,272.3280,191.4435,168.6721,0,U,60506,999,10587,.14004E-3,.4044E-4,0
TANAGER-1,2024-149AR,2026-07-12T19:34:42.966912,15.43933235,.0001455,97.2333,287.9626,136.9198,223.2165,0,U,60507,999,10699,.6344E-5,.204E-5,0
EAGLEEYE,2024-149AS,2026-07-13T01:16:16.588128,15.76396039,.0004941,97.3721,288.9197,189.9028,170.2141,0,U,60508,999,10700,.71067E-3,.113134E-2,0
FLOCK 4BE-29,2024-149AT,2026-07-12T18:27:41.981760,15.45342130,.0003286,97.3809,280.0431,178.7826,181.3431,0,U,60509,999,10636,.76848E-3,.36693E-3,0
TRANSPORTER-11 OBJECT AU,2024-149AU,2026-07-13T00:56:18.447360,15.40936113,.0004045,97.3732,277.9776,175.0946,185.0341,0,U,60510,999,10629,.27871E-3,.11389E-3,0
FLOCK 4BE-2,2024-149AV,2026-07-12T19:31:16.139136,15.55688998,.0005085,97.3839,281.8931,178.8618,181.2649,0,U,60511,999,10648,.7783E-3,.53712E-3,0
FLOCK 4BE-13,2024-149AW,2026-07-13T01:03:53.461728,15.42578348,.0004972,97.3722,278.7358,162.1707,197.9716,0,U,60512,999,10635,.25794E-3,.11128E-3,0
